QZS-1R                  
1 49336U 21096A   24075.37688810 -.00000274  00000+0  00000+0 0  9994
2 49336  35.7502  91.9477 0749486 269.5954  81.0869  1.00291641  8749
